ONEWEB-0328             
1 49197U 21083M   24200.74905447 -.00000287  00000+0 -82172-3 0  9993
2 49197  87.8914  99.2463 0001821  80.3957 279.7378 13.13469808139218
ONEWEB-0331             
1 49198U 21083N   24200.78112758  .00000024  00000+0  28080-4 0  9999
2 49198  87.9150 114.4944 0002021  83.1066 277.0296 13.18684352137969
ONEWEB-0333             
1 49199U 21083P   24200.74430149 -.00000294  00000+0 -83939-3 0  9997
2 49199  87.8927  99.2769 0001900  72.2610 287.8726 13.13470711139220
ONEWEB-0334             
1 49200U 21083Q   24200.63286937  .00000101  00000+0  21540-3 0  9997
2 49200  87.9181  53.4520 0002594  62.7711 297.3686 13.20856016144589
ONEWEB-0335             
1 49201U 21083R   24200.73953397 -.00000186  00000+0 -54546-3 0  9997
2 49201  87.8927  99.2666 0001743  79.0582 281.0743 13.13468751139235
ONEWEB-0336             
1 49202U 21083S   24201.16644956 -.00000036  00000+0 -13273-3 0  9990
2 49202  87.8923  99.1778 0001917  75.4254 284.7087 13.13473939140589
ONEWEB-0337             
1 49203U 21083T   24200.79495562  .00000171  00000+0  43207-3 0  9994
2 49203  87.8926  99.2502 0001856  79.6915 280.4423 13.13470446139238
ONEWEB-0338             
1 49204U 21083U   24201.09420980  .00000075  00000+0  15216-3 0  9993
2 49204  87.9185  53.3454 0001693  70.8875 289.2442 13.20769926145968
ONEWEB-0339             
1 49205U 21083V   24200.73001475  .00000036  00000+0  63654-4 0  9995
2 49205  87.8923  99.2578 0001755  77.5320 282.6005 13.13469734139200
ONEWEB-0340             
1 49206U 21083W   24200.76689577 -.00000245  00000+0 -65300-3 0  9997
2 49206  87.9151 114.4922 0002013  81.3406 278.7954 13.18686169137928
ONEWEB-0341             
1 49207U 21083X   24200.77479179 -.00000292  00000+0 -77284-3 0  9990
2 49207  87.9148 114.5042 0001242  83.9978 276.1296 13.18686016137948
ONEWEB-0342             
1 49208U 21083Y   24201.10051725 -.00000112  00000+0 -30670-3 0  9991
2 49208  87.9178  53.3515 0001753  78.1109 282.0220 13.20769907145931
ONEWEB-0343             
1 49209U 21083Z   24200.77005603  .00000047  00000+0  87121-4 0  9997
2 49209  87.9143 114.5103 0001351  75.5744 284.5538 13.18685731137992
ONEWEB-0344             
1 49210U 21083AA  24200.69668709  .00000174  00000+0  44094-3 0  9994
2 49210  87.8926  99.2822 0001570  91.0580 269.0729 13.13471005139201
ONEWEB-0345             
1 49211U 21083AB  24200.79032928  .00000317  00000+0  83272-3 0  9994
2 49211  87.8924  99.2379 0001562  91.8615 268.2693 13.13471135139222
ONEWEB-0346             
1 49212U 21083AC  24200.77954381 -.00000262  00000+0 -69670-3 0  9996
2 49212  87.9149 114.5119 0002201  87.7896 272.3488 13.18685850137932
ONEWEB-0348             
1 49213U 21083AD  24201.09106051  .00000124  00000+0  27382-3 0  9995
2 49213  87.9187  53.3287 0001910 106.1275 254.0069 13.20771694145963
ONEWEB-0350             
1 49214U 21083AE  24201.40927053 -.00000619  00000+0 -17316-2 0  9990
2 49214  87.8923  99.1057 0001556  87.5953 272.5355 13.13460154140635
ONEWEB-0351             
1 49215U 21083AF  24200.63007519 -.00000835  00000+0 -20862-2 0  9991
2 49215  87.9201  53.4163 0000944  47.6635 312.4578 13.20765868144566
ONEWEB-0352             
1 49216U 21083AG  24200.70462697  .00000295  00000+0  77349-3 0  9993
2 49216  87.8926  99.2781 0001559  62.7654 297.3634 13.13471704139334
ONEWEB-0354             
1 49217U 21083AH  24200.65545924  .00000046  00000+0  80181-4 0  9996
2 49217  87.9186  53.3996 0001526  91.3866 268.7442 13.20771847144604
ONEWEB-0355             
1 49218U 21083AJ  24200.73477258 -.00000068  00000+0 -22129-3 0  9993
2 49218  87.8926  99.2715 0001753  75.5988 284.5336 13.13469457139217
ONEWEB-0357             
1 49219U 21083AK  24201.10685128 -.00001141  00000+0 -28392-2 0  9993
2 49219  87.9164  53.3272 0001924  67.9561 292.1777 13.20768168145966
ONEWEB-0332             
1 49279U 21090A   24200.68573605  .00000143  00000+0  35002-3 0  9991
2 49279  87.8938  68.6800 0001963  71.1435 288.9907 13.14503801135811
ONEWEB-0347             
1 49280U 21090B   24201.09736663  .00000131  00000+0  29114-3 0  9998
2 49280  87.9185  53.3281 0002132  73.0959 287.0408 13.20773122138892
ONEWEB-0349             
1 49281U 21090C   24201.50772399 -.00000122  00000+0 -33269-3 0  9999
2 49281  87.9186  53.2468 0001870  81.9801 278.1545 13.20771119139025
ONEWEB-0353             
1 49282U 21090D   24200.67779024 -.00000062  00000+0 -20142-3 0  9998
2 49282  87.8938  68.6662 0001879  72.9671 287.1665 13.14503460135811
ONEWEB-0356             
1 49283U 21090E   24201.50614800  .00000001  00000+0 -30495-4 0  9997
2 49283  87.9185  53.2413 0002692  93.4752 266.6689 13.20771658139021
ONEWEB-0358             
1 49284U 21090F   24200.62705182  .00000081  00000+0  16637-3 0  9992
2 49284  87.9188  53.4033 0001928  93.3742 266.7612 13.20771004138340
ONEWEB-0359             
1 49285U 21090G   24200.62388517  .00000088  00000+0  18532-3 0  9995
2 49285  87.9186  53.4219 0001463  96.8069 263.3231 13.20769770138324
ONEWEB-0360             
1 49286U 21090H   24201.52350341  .00000059  00000+0  11275-3 0  9995
2 49286  87.9184  53.2473 0001737  86.4563 273.6768 13.20772582139045
ONEWEB-0361             
1 49287U 21090J   24200.59548295  .00000075  00000+0  15287-3 0  9994
2 49287  87.9186  53.4269 0001965  83.6520 276.4837 13.20772908138081
ONEWEB-0362             
1 49288U 21090K   24200.67710444  .00000002  00000+0 -27351-4 0  9998
2 49288  87.9136  83.9786 0001557  71.2036 288.9265 13.19724055134785
ONEWEB-0363             
1 49289U 21090L   24200.61126445  .00000116  00000+0  25347-3 0  9992
2 49289  87.9185  53.4189 0002089  91.1094 269.0279 13.20772632138926
ONEWEB-0364             
1 49290U 21090M   24200.64914897  .00000024  00000+0  25999-4 0  9995
2 49290  87.9190  53.4370 0001924  83.4443 276.6909 13.20771377139239
ONEWEB-0365             
1 49291U 21090N   24200.68658634  .00000016  00000+0  69949-5 0  9999
2 49291  87.9128  83.9550 0001804  75.2762 284.8570 13.19725009134294
ONEWEB-0366             
1 49292U 21090P   24200.67461938 -.00000094  00000+0 -28822-3 0  9999
2 49292  87.8939  68.6763 0001950  77.4320 282.7028 13.14503840135799
ONEWEB-0367             
1 49293U 21090Q   24200.60968696  .00000108  00000+0  23406-3 0  9993
2 49293  87.9187  53.4137 0001970  79.1468 280.9887 13.20772408138912
ONEWEB-0368             
1 49294U 21090R   24201.49194840  .00001476  00000+0  35977-2 0  9998
2 49294  87.9187  53.2684 0002723  74.1644 285.9789 13.20763866140182
ONEWEB-0369             
1 49295U 21090S   24200.75767090 -.00000019  00000+0 -80341-4 0  9991
2 49295  87.9135  83.9458 0001897  73.6032 286.5310 13.19725730134299
ONEWEB-0370             
1 49296U 21090T   24201.52823243 -.00000147  00000+0 -39367-3 0  9994
2 49296  87.9184  53.2349 0001512  92.3976 267.7331 13.20770838139078
ONEWEB-0371             
1 49297U 21090U   24200.68974255  .00000035  00000+0  54270-4 0  9996
2 49297  87.9135  83.9493 0001761  74.6634 285.4693 13.19727234134326
ONEWEB-0372             
1 49298U 21090V   24201.13825427  .00000776  00000+0  18773-2 0  9992
2 49298  87.9185  53.3211 0001837  79.5093 280.6247 13.20775519138998
ONEWEB-0373             
1 49299U 21090W   24200.63494168  .00000008  00000+0 -11607-4 0  9991
2 49299  87.9187  53.4372 0002157  84.4369 275.7011 13.20771615138815
ONEWEB-0374             
1 49300U 21090X   24200.66192862 -.00000151  00000+0 -44291-3 0  9997
2 49300  87.8940  68.6634 0001903  79.6711 280.4633 13.14504507135792
ONEWEB-0375             
1 49301U 21090Y   24200.62233070  .00000096  00000+0  20359-3 0  9996
2 49301  87.9186  53.4161 0002335  99.2545 260.8852 13.20772352138314
ONEWEB-0376             
1 49302U 21090Z   24201.21888502 -.00000039  00000+0 -13018-3 0  9992
2 49302  87.9128  83.8500 0001901  69.1519 290.9817 13.19724909135674
ONEWEB-0377             
1 49303U 21090AA  24200.68399525 -.00000093  00000+0 -26105-3 0  9996
2 49303  87.9186  53.3956 0001638  89.5473 270.5848 13.20771903138318
ONEWEB-0378             
1 49304U 21090AB  24200.63033816  .00000066  00000+0  13143-3 0  9996
2 49304  87.9189  53.4095 0001925  85.9209 274.2144 13.20769692137572
ONEWEB-0379             
1 49305U 21090AC  24201.18999940 -.00000096  00000+0 -29232-3 0  9998
2 49305  87.8939  68.5611 0001891  77.6607 282.4734 13.14502695137160
ONEWEB-0380             
1 49306U 21090AD  24200.68500446 -.00000002  00000+0 -36971-4 0  9998
2 49306  87.9136  83.9632 0001814  78.2082 281.9254 13.19723616134299
ONEWEB-0381             
1 49307U 21090AE  24200.68071101  .00000083  00000+0  17100-3 0  9999
2 49307  87.9187  53.4031 0001816  88.4095 271.7246 13.20773190137622
ONEWEB-0382             
1 49308U 21090AF  24200.66808209  .00000019  00000+0  15558-4 0  9990
2 49308  87.9186  53.4023 0002251  88.7930 271.3462 13.20770696137611
ONEWEB-0383             
1 49309U 21090AG  24200.72694563 -.00000055  00000+0 -18349-3 0  9996
2 49309  87.8938  68.6411 0002034  78.5425 281.5933 13.14504286135831
ONEWEB-0384             
1 49310U 21090AH  24200.66492541  .00000005  00000+0 -19918-4 0  9991
2 49310  87.9188  53.4148 0002330  88.4312 271.7088 13.20770836137628
ONEWEB-0385             
1 49311U 21090AJ  24201.11473354  .00000138  00000+0  30763-3 0  9990
2 49311  87.9188  53.3265 0002096  91.6490 268.4883 13.20771430138976
ONEWEB-0386             
1 49312U 21090AK  24200.67754848  .00000086  00000+0  17943-3 0  9998
2 49312  87.9180  53.4063 0002101  86.4859 273.6514 13.20770862137611
ONEWEB-0387             
1 49313U 21090AL  24200.66177422  .00000048  00000+0  85465-4 0  9998
2 49313  87.9187  53.4740 0001910  95.7451 264.3900 13.20771822137612
ONEWEB-0388             
1 49314U 21090AM  24200.75608116  .00000016  00000+0  81858-5 0  9996
2 49314  87.9136  83.9526 0001982  77.6952 282.4403 13.19724246134297
